FLOCK 2P-4              
1 41611U 16040N   17204.44403712  .00001384  00000-0  63050-4 0  9997
2 41611  97.4596 266.9979 0010046 323.2500  36.8047 15.22333163 60181
FLOCK 2P-10             
1 41612U 16040P   17204.48799294  .00003052  00000-0  13528-3 0  9993
2 41612  97.4600 267.1155 0009795 323.7338  36.3234 15.22341607 60196
FLOCK 2P-8              
1 41613U 16040Q   17204.43866607  .00002728  00000-0  12126-3 0  9994
2 41613  97.4596 267.0098 0009891 322.9731  37.0821 15.22338190 60183
FLOCK 2P-12             
1 41614U 16040R   17204.59726617  .00002331  00000-0  10411-3 0  9993
2 41614  97.4606 267.3070 0009571 322.8146  37.2427 15.22327180 60218
FLOCK 2P-7              
1 41615U 16040S   17204.43318145  .00002183  00000-0  97646-4 0  9991
2 41615  97.4592 267.0036 0009820 324.5455  35.5127 15.22338456 60183
FLOCK 2P-5              
1 41616U 16040T   17204.47695000  .00002619  00000-0  11652-3 0  9990
2 41616  97.4606 267.1610 0009594 322.4888  37.5677 15.22348452 60172
FLOCK 2P-1              
1 41617U 16040U   17204.59695639  .00001525  00000-0  69163-4 0  9998
2 41617  97.4608 267.3068 0009476 323.1811  36.8773 15.22339286 60216
FLOCK 2P-3              
1 41618U 16040V   17204.36192600  .00001438  00000-0  65387-4 0  9991
2 41618  97.4605 267.0028 0009509 323.9850  36.0745 15.22327626 60176
BEESAT-4                
1 41619U 16040W   17204.57699864  .00001323  00000-0  63042-4 0  9998
2 41619  97.4601 266.6106 0010621 305.7529  54.2718 15.20857086 48122
3CAT-2                  
1 41732U 16051B   17204.54465541  .00001190  00000-0  50473-4 0  9992
2 41732  97.3748 120.9937 0014835 139.7262 345.7032 15.24966165 52072
FLOCK 2E'-13            
1 41761U 98067KH  17204.38447982  .00006367  00000-0  79402-4 0  9996
2 41761  51.6365 208.3424 0007272  38.1371 322.0136 15.61320325 48569
FLOCK 2E'-14            
1 41762U 98067KJ  17204.42967538  .00006591  00000-0  81384-4 0  9997
2 41762  51.6376 207.9209 0007181  38.3617 321.7886 15.61516441 48577
FLOCK 2E'-16            
1 41763U 98067KK  17204.39017454  .00007116  00000-0  85777-4 0  9991
2 41763  51.6376 207.6533 0006550  46.7991 313.3549 15.62006678 48538
FLOCK 2E'-15            
1 41764U 98067KL  17204.46194176  .00006362  00000-0  79660-4 0  9993
2 41764  51.6373 208.1316 0006801  44.4446 315.7092 15.61217221 48536
FLOCK 2E'-18            
1 41769U 98067KM  17204.38256332  .00006443  00000-0  80449-4 0  9999
2 41769  51.6375 208.3449 0005830  63.7551 296.4042 15.61268912 48526
FLOCK 2E'-17            
1 41776U 98067KN  17204.37368755  .00006858  00000-0  84992-4 0  9996
2 41776  51.6382 208.3064 0006202  64.6354 295.5281 15.61342725 48519
FLOCK 2E'-19            
1 41777U 98067KP  17204.49421032  .00010489  00000-0  11420-3 0  9998
2 41777  51.6358 204.5645 0005281  64.5252 295.6289 15.64050731 48535
FLOCK 2E'-20            
1 41782U 98067KQ  17204.57466996  .00008287  00000-0  94374-4 0  9994
2 41782  51.6371 205.1313 0005316  58.8112 301.3403 15.63231888 48407
CANX-7                  
1 41788U 16059F   17204.54539070  .00006289  00000-0  11768-2 0  9996
2 41788  98.1794 266.0838 0035186  61.0523 299.4254 14.64801588 43918
ALSAT 1N                
1 41789U 16059G   17204.57695400  .00000082  00000-0  24795-4 0  9991
2 41789  98.1653 266.1413 0029321  42.9715 317.3785 14.64058930 43934
RAVAN                   
1 41849U 16067B   17204.45215988  .00000622  00000-0  59312-4 0  9996
2 41849  97.9486 283.1231 0008796 168.0111 192.1321 14.97047326 37933
CELTEE 1                
1 41850U 16067C   17204.43496470  .00000787  00000-0  74471-4 0  9998
2 41850  97.9477 282.9877 0009255 167.7895 192.3552 14.96574713 37925
OPTICUBE 04             
1 41851U 16067D   17204.50910224  .00000489  00000-0  48383-4 0  9997
2 41851  97.9478 283.0460 0009164 168.4275 191.7158 14.96503912 37935
AEROCUBE 8D             
1 41852U 16067E   17204.43007803  .00000759  00000-0  72671-4 0  9997
2 41852  97.9486 282.8704 0010095 169.8332 190.3095 14.96219481 37915
AEROCUBE 8C             
1 41853U 16067F   17204.16879692  .00000783  00000-0  74799-4 0  9991
2 41853  97.9487 282.5891 0010386 171.6479 188.4917 14.96184067 37874
PROMETHEUS 2-1          
1 41854U 16067G   17204.51862567  .00000224  00000-0  25246-4 0  9997
2 41854  97.9492 282.9128 0010607 170.9052 189.2363 14.96150696 37924
PROMETHEUS 2-3          
1 41855U 16067H   17204.52021255  .00000169  00000-0  20443-4 0  9992
2 41855  97.9493 282.9138 0010763 171.4849 188.6557 14.96142269 37925
LEMUR-2-XIAOQING        
1 41871U 16062C   17204.57294130  .00002745  00000-0  13107-3 0  9994
2 41871  51.6514 274.1378 0004988   0.9228 138.0991 15.22473254 36484
LEMUR-2-SOKOLSKY        
1 41872U 16062D   17204.41909625  .00002397  00000-0  11632-3 0  9994
2 41872  51.6387 274.6580 0004489  24.6668  65.2448 15.22458229 36450
LEMUR-2-ANUBHAVTHAKUR   
1 41873U 16062E   17204.57162323  .00001460  00000-0  78264-4 0  9993
2 41873  51.6450 274.8491 0006839  23.3324 117.3616 15.21612424 36455
LEMUR-2-WINGO           
1 41874U 16062F   17204.58975935  .00000550  00000-0  37935-4 0  9995
2 41874  51.6441 274.2601 0006432 353.1492 148.8783 15.22189517 36471
STARS-C                 
1 41895U 98067KR  17204.47857241  .00022302  00000-0  24409-3 0  9990
2 41895  51.6357 210.4772 0005293  76.4284 283.7300 15.63193603 33667
TANCREDO-1              
1 41931U 98067KT  17204.46663257  .00054319  00000-0  42682-3 0  9998
2 41931  51.6339 205.8588 0007759  45.6880 314.4753 15.70924672 29294
ITF-2                   
1 41932U 98067KU  17204.41046185  .00011501  00000-0  14535-3 0  9991
2 41932  51.6385 213.0486 0006345  45.3058 314.8451 15.60032588 29191
WASEDA-SAT3             
1 41933U 98067KV  17204.43696587  .00014196  00000-0  17341-3 0  9992
2 41933  51.6368 212.4578 0006372  46.9638 313.1888 15.60702418 29203
AOBA-VELOX 3            
1 41935U 98067KX  17204.58479179  .00012417  00000-0  15404-3 0  9998
2 41935  51.6382 211.9579 0005844  48.8341 311.3156 15.60438868 29327
TUPOD                   
1 41936U 98067KY  17204.54667376  .00124628  00000-0  67482-3 0  9994
2 41936  51.6287 201.8516 0007680  44.5538 315.6079 15.79146447 28837
OSNSAT                  
1 41939U 98067KZ  17204.41687473  .00029624  00000-0  29537-3 0  9992
2 41939  51.6357 209.3066 0007589  46.4275 313.7350 15.65372786 28606
FLOCK 3P-8              
1 41951U 17008D   17204.51708756  .00003603  00000-0  15798-3 0  9994
2 41951  97.4933 265.7255 0010119  71.0337 289.1995 15.22592343 24063
FLOCK 3P-51             
1 41952U 17008E   17204.55480408  .00002152  00000-0  95341-4 0  9991
2 41952  97.4939 265.8407 0010160  85.7126 274.5271 15.22684073 24072
FLOCK 3P-37             
1 41953U 17008F   17204.58876445  .00002482  00000-0  10830-3 0  9990
2 41953  97.4937 265.9420 0009502  90.0758 270.1567 15.23070592 24082
INS-1B                  
1 41954U 17008G   17204.56665296  .00001346  00000-0  62303-4 0  9990
2 41954  97.4912 265.6165 0011248  69.0842 291.1596 15.21821725 24006
FLOCK 3P-19             
1 41955U 17008H   17204.59750950  .00003666  00000-0  16090-3 0  9994
2 41955  97.4929 265.7633 0010986  70.3630 289.8791 15.22543059 23994
FLOCK 3P-24             
1 41956U 17008J   17204.59615881  .00003707  00000-0  16245-3 0  9996
2 41956  97.4928 265.7653 0010841  68.1525 292.0863 15.22585995 24075
FLOCK 3P-18             
1 41957U 17008K   17204.53201892  .00003961  00000-0  17334-3 0  9996
2 41957  97.4929 265.7009 0010845  69.2204 291.0193 15.22587060 23903
FLOCK 3P-22             
1 41958U 17008L   17204.60045742  .00003303  00000-0  14547-3 0  9998
2 41958  97.4930 265.7634 0010778  69.2315 291.0075 15.22496613 23900
FLOCK 3P-21             
1 41959U 17008M   17204.59035286  .00003645  00000-0  15991-3 0  9992
2 41959  97.4935 265.7844 0010613  71.4825 288.7564 15.22558449 23911
FLOCK 3P-28             
1 41960U 17008N   17204.58855062  .00002880  00000-0  12697-3 0  9995
2 41960  97.4933 265.7838 0010426  69.9974 290.2384 15.22571718 23993
FLOCK 3P-26             
1 41961U 17008P   17204.59665113  .00002774  00000-0  12257-3 0  9997
2 41961  97.4932 265.7717 0010599  69.3267 290.9105 15.22522718 23915
FLOCK 3P-17             
1 41962U 17008Q   17204.51309596  .00002090  00000-0  92834-4 0  9991
2 41962  97.4932 265.7306 0010413  71.8571 288.3798 15.22624880 23856
FLOCK 3P-27             
1 41963U 17008R   17204.53681587  .00003380  00000-0  14900-3 0  9997
2 41963  97.4933 265.7007 0010740  69.6967 290.5422 15.22444127 23902
FLOCK 3P-25             
1 41964U 17008S   17204.59255065  .00003632  00000-0  15939-3 0  9995
2 41964  97.4931 265.7749 0010385  70.4698 289.7659 15.22555342 23892
FLOCK 3P-4              
1 41965U 17008T   17204.58676365  .00002396  00000-0  10611-3 0  9993
2 41965  97.4933 265.7879 0010340  71.3104 288.9253 15.22587706 23993
FLOCK 3P-2              
1 41966U 17008U   17204.58693574  .00002454  00000-0  10864-3 0  9990
2 41966  97.4935 265.7907 0010168  69.8381 290.3948 15.22574859 23910
FLOCK 3P-1              
1 41967U 17008V   17204.52813804  .00002384  00000-0  10616-3 0  9992
2 41967  97.4938 265.7181 0010232  70.7652 289.4690 15.22402610 23909
FLOCK 3P-3              
1 41968U 17008W   17204.58914377  .00003191  00000-0  14035-3 0  9992
2 41968  97.4933 265.7840 0010265  70.0647 290.1694 15.22570806 23995
FLOCK 3P-6              
1 41969U 17008X   17204.58547314  .00002243  00000-0  99542-4 0  9990
2 41969  97.4935 265.7931 0010078  70.0450 290.1871 15.22588132 23902
FLOCK 3P-7              
1 41970U 17008Y   17204.57001196  .00002938  00000-0  12900-3 0  9997
2 41970  97.4936 265.8145 0010167  72.5816 287.6532 15.22697028 23916
FLOCK 3P-5              
1 41971U 17008Z   17204.51477265  .00003791  00000-0  16610-3 0  9996
2 41971  97.4937 265.7377 0010124  72.3164 287.9176 15.22588050 23833
